CCSDS_OMM_VERS = 2.0
CREATION_DATE  = 
ORIGINATOR     = 

OBJECT_NAME    = UNKNOWN
OBJECT_ID      = 
CENTER_NAME    = EARTH
REF_FRAME      = TEME
TIME_SYSTEM    = UTC
MEAN_ELEMENT_THEORY = SGP/SGP4

EPOCH          = 2025-10-28T11:57:06.048288
MEAN_MOTION    = 13.99983230
ECCENTRICITY   = .0511538
INCLINATION    = 65.5350
RA_OF_ASC_NODE = 333.5415
ARG_OF_PERICENTER = 48.4748
MEAN_ANOMALY   = 315.9051

EPHEMERIS_TYPE = 0
CLASSIFICATION_TYPE = U
NORAD_CAT_ID   = 85237
ELEMENT_SET_NO = 999
REV_AT_EPOCH   = 60201
BSTAR          = .10732E-2
MEAN_MOTION_DOT = .4906E-4
MEAN_MOTION_DDOT = 0

CCSDS_OMM_VERS = 2.0
CREATION_DATE  = 
ORIGINATOR     = 

OBJECT_NAME    = UNKNOWN
OBJECT_ID      = 
CENTER_NAME    = EARTH
REF_FRAME      = TEME
TIME_SYSTEM    = UTC
MEAN_ELEMENT_THEORY = SGP/SGP4

EPOCH          = 2025-11-11T13:51:48.574656
MEAN_MOTION    = 13.88333776
ECCENTRICITY   = .0062464
INCLINATION    = 99.0575
RA_OF_ASC_NODE = 245.6558
ARG_OF_PERICENTER = 285.3325
MEAN_ANOMALY   = 249.0178

EPHEMERIS_TYPE = 0
CLASSIFICATION_TYPE = U
NORAD_CAT_ID   = 85238
ELEMENT_SET_NO = 999
REV_AT_EPOCH   = 60651
BSTAR          = .13709E-3
MEAN_MOTION_DOT = .123E-5
MEAN_MOTION_DDOT = 0

CCSDS_OMM_VERS = 2.0
CREATION_DATE  = 
ORIGINATOR     = 

OBJECT_NAME    = UNKNOWN
OBJECT_ID      = 
CENTER_NAME    = EARTH
REF_FRAME      = TEME
TIME_SYSTEM    = UTC
MEAN_ELEMENT_THEORY = SGP/SGP4

EPOCH          = 2025-11-12T06:48:27.318528
MEAN_MOTION    = 14.21317585
ECCENTRICITY   = .0224425
INCLINATION    = 97.9880
RA_OF_ASC_NODE = 322.6442
ARG_OF_PERICENTER = 34.1071
MEAN_ANOMALY   = 327.4300

EPHEMERIS_TYPE = 0
CLASSIFICATION_TYPE = U
NORAD_CAT_ID   = 85246
ELEMENT_SET_NO = 999
REV_AT_EPOCH   = 61874
BSTAR          = .15694E-2
MEAN_MOTION_DOT = .4381E-4
MEAN_MOTION_DDOT = 0

CCSDS_OMM_VERS = 2.0
CREATION_DATE  = 
ORIGINATOR     = 

OBJECT_NAME    = UNKNOWN
OBJECT_ID      = 
CENTER_NAME    = EARTH
REF_FRAME      = TEME
TIME_SYSTEM    = UTC
MEAN_ELEMENT_THEORY = SGP/SGP4

EPOCH          = 2025-11-11T20:16:22.848096
MEAN_MOTION    = 13.99786096
ECCENTRICITY   = .0049262
INCLINATION    = 100.4291
RA_OF_ASC_NODE = 347.6629
ARG_OF_PERICENTER = 318.1222
MEAN_ANOMALY   = 221.1853

EPHEMERIS_TYPE = 0
CLASSIFICATION_TYPE = U
NORAD_CAT_ID   = 85373
ELEMENT_SET_NO = 999
REV_AT_EPOCH   = 60780
BSTAR          = .26576E-2
MEAN_MOTION_DOT = .3882E-4
MEAN_MOTION_DDOT = 0

CCSDS_OMM_VERS = 2.0
CREATION_DATE  = 
ORIGINATOR     = 

OBJECT_NAME    = UNKNOWN
OBJECT_ID      = 
CENTER_NAME    = EARTH
REF_FRAME      = TEME
TIME_SYSTEM    = UTC
MEAN_ELEMENT_THEORY = SGP/SGP4

EPOCH          = 2025-11-11T10:01:05.030976
MEAN_MOTION    = 13.51648095
ECCENTRICITY   = .0056206
INCLINATION    = 100.4970
RA_OF_ASC_NODE = 277.9631
ARG_OF_PERICENTER = 319.2508
MEAN_ANOMALY   = 195.9790

EPHEMERIS_TYPE = 0
CLASSIFICATION_TYPE = U
NORAD_CAT_ID   = 87014
ELEMENT_SET_NO = 999
REV_AT_EPOCH   = 58668
BSTAR          = .59179E-2
MEAN_MOTION_DOT = .3854E-4
MEAN_MOTION_DDOT = 0

CCSDS_OMM_VERS = 2.0
CREATION_DATE  = 
ORIGINATOR     = 

OBJECT_NAME    = UNKNOWN
OBJECT_ID      = 
CENTER_NAME    = EARTH
REF_FRAME      = TEME
TIME_SYSTEM    = UTC
MEAN_ELEMENT_THEORY = SGP/SGP4

EPOCH          = 2025-11-11T21:19:19.955424
MEAN_MOTION    = 14.07028062
ECCENTRICITY   = .0043861
INCLINATION    = 98.7179
RA_OF_ASC_NODE = 0.2104
ARG_OF_PERICENTER = 180.8878
MEAN_ANOMALY   = 179.2221

EPHEMERIS_TYPE = 0
CLASSIFICATION_TYPE = U
NORAD_CAT_ID   = 87042
ELEMENT_SET_NO = 999
REV_AT_EPOCH   = 54962
BSTAR          = .68807E-3
MEAN_MOTION_DOT = .1117E-4
MEAN_MOTION_DDOT = 0

CCSDS_OMM_VERS = 2.0
CREATION_DATE  = 
ORIGINATOR     = 

OBJECT_NAME    = UNKNOWN
OBJECT_ID      = 
CENTER_NAME    = EARTH
REF_FRAME      = TEME
TIME_SYSTEM    = UTC
MEAN_ELEMENT_THEORY = SGP/SGP4

EPOCH          = 2025-11-12T10:23:37.881312
MEAN_MOTION    = 13.45746512
ECCENTRICITY   = .0717399
INCLINATION    = 65.7286
RA_OF_ASC_NODE = 326.5651
ARG_OF_PERICENTER = 155.2693
MEAN_ANOMALY   = 208.4619

EPHEMERIS_TYPE = 0
CLASSIFICATION_TYPE = U
NORAD_CAT_ID   = 87051
ELEMENT_SET_NO = 999
REV_AT_EPOCH   = 58450
BSTAR          = .10325E-2
MEAN_MOTION_DOT = .2992E-4
MEAN_MOTION_DDOT = 0

CCSDS_OMM_VERS = 2.0
CREATION_DATE  = 
ORIGINATOR     = 

OBJECT_NAME    = UNKNOWN
OBJECT_ID      = 
CENTER_NAME    = EARTH
REF_FRAME      = TEME
TIME_SYSTEM    = UTC
MEAN_ELEMENT_THEORY = SGP/SGP4

EPOCH          = 2025-11-10T21:19:58.377504
MEAN_MOTION    = 14.10866736
ECCENTRICITY   = .0013691
INCLINATION    = 100.0919
RA_OF_ASC_NODE = 190.4084
ARG_OF_PERICENTER = 67.0431
MEAN_ANOMALY   = 293.2179

EPHEMERIS_TYPE = 0
CLASSIFICATION_TYPE = U
NORAD_CAT_ID   = 87054
ELEMENT_SET_NO = 999
REV_AT_EPOCH   = 61183
BSTAR          = .15178E-2
MEAN_MOTION_DOT = .267E-4
MEAN_MOTION_DDOT = 0

CCSDS_OMM_VERS = 2.0
CREATION_DATE  = 
ORIGINATOR     = 

OBJECT_NAME    = UNKNOWN
OBJECT_ID      = 
CENTER_NAME    = EARTH
REF_FRAME      = TEME
TIME_SYSTEM    = UTC
MEAN_ELEMENT_THEORY = SGP/SGP4

EPOCH          = 2025-11-12T03:09:03.414528
MEAN_MOTION    = 13.85192930
ECCENTRICITY   = .0482907
INCLINATION    = 61.2237
RA_OF_ASC_NODE = 2.7744
ARG_OF_PERICENTER = 222.1437
MEAN_ANOMALY   = 134.1507

EPHEMERIS_TYPE = 0
CLASSIFICATION_TYPE = U
NORAD_CAT_ID   = 87071
ELEMENT_SET_NO = 999
REV_AT_EPOCH   = 59824
BSTAR          = .33391E-2
MEAN_MOTION_DOT = .9412E-4
MEAN_MOTION_DDOT = 0

CCSDS_OMM_VERS = 2.0
CREATION_DATE  = 
ORIGINATOR     = 

OBJECT_NAME    = UNKNOWN
OBJECT_ID      = 
CENTER_NAME    = EARTH
REF_FRAME      = TEME
TIME_SYSTEM    = UTC
MEAN_ELEMENT_THEORY = SGP/SGP4

EPOCH          = 2025-11-11T05:05:52.587744
MEAN_MOTION    = 12.42799446
ECCENTRICITY   = .0033596
INCLINATION    = 102.2636
RA_OF_ASC_NODE = 45.8017
ARG_OF_PERICENTER = 147.4225
MEAN_ANOMALY   = 212.8920

EPHEMERIS_TYPE = 0
CLASSIFICATION_TYPE = U
NORAD_CAT_ID   = 87129
ELEMENT_SET_NO = 999
REV_AT_EPOCH   = 54275
BSTAR          = .22443E-2
MEAN_MOTION_DOT = .265E-5
MEAN_MOTION_DDOT = 0

CCSDS_OMM_VERS = 2.0
CREATION_DATE  = 
ORIGINATOR     = 

OBJECT_NAME    = UNKNOWN
OBJECT_ID      = 
CENTER_NAME    = EARTH
REF_FRAME      = TEME
TIME_SYSTEM    = UTC
MEAN_ELEMENT_THEORY = SGP/SGP4

EPOCH          = 2025-11-06T01:45:04.557024
MEAN_MOTION    = 13.65936087
ECCENTRICITY   = .0103684
INCLINATION    = 90.3486
RA_OF_ASC_NODE = 68.0777
ARG_OF_PERICENTER = 6.5928
MEAN_ANOMALY   = 353.6568

EPHEMERIS_TYPE = 0
CLASSIFICATION_TYPE = U
NORAD_CAT_ID   = 87159
ELEMENT_SET_NO = 999
REV_AT_EPOCH   = 55168
BSTAR          = .15248E-2
MEAN_MOTION_DOT = .1307E-4
MEAN_MOTION_DDOT = 0

CCSDS_OMM_VERS = 2.0
CREATION_DATE  = 
ORIGINATOR     = 

OBJECT_NAME    = UNKNOWN
OBJECT_ID      = 
CENTER_NAME    = EARTH
REF_FRAME      = TEME
TIME_SYSTEM    = UTC
MEAN_ELEMENT_THEORY = SGP/SGP4

EPOCH          = 2025-11-11T23:39:30.363840
MEAN_MOTION    = 13.63647104
ECCENTRICITY   = .0642164
INCLINATION    = 65.6015
RA_OF_ASC_NODE = 312.1374
ARG_OF_PERICENTER = 78.4555
MEAN_ANOMALY   = 288.7841

EPHEMERIS_TYPE = 0
CLASSIFICATION_TYPE = U
NORAD_CAT_ID   = 87163
ELEMENT_SET_NO = 999
REV_AT_EPOCH   = 57332
BSTAR          = .85749E-3
MEAN_MOTION_DOT = .2754E-4
MEAN_MOTION_DDOT = 0

