UNKNOWN                 
1 85237U          25301.49798667  .00004906  00000+0  10732-2 0  9995
2 85237  65.5350 333.5415 0511538  48.4748 315.9051 13.99983230602013
UNKNOWN                 
1 85238U          25315.57764554  .00000123  00000+0  13709-3 0  9993
2 85238  99.0575 245.6558 0062464 285.3325 249.0178 13.88333776606516
UNKNOWN                 
1 85246U          25316.28364952  .00004381  00000+0  15694-2 0  9993
2 85246  97.9880 322.6442 0224425  34.1071 327.4300 14.21317585618748
UNKNOWN                 
1 85373U          25315.84470889  .00003882  00000+0  26576-2 0  9998
2 85373 100.4291 347.6629 0049262 318.1222 221.1853 13.99786096607805
UNKNOWN                 
1 87014U          25315.41741934  .00003854  00000+0  59179-2 0  9991
2 87014 100.4970 277.9631 0056206 319.2508 195.9790 13.51648095586680
UNKNOWN                 
1 87042U          25315.88842541  .00001117  00000+0  68807-3 0  9998
2 87042  98.7179   0.2104 0043861 180.8878 179.2221 14.07028062549623
UNKNOWN                 
1 87051U          25316.43307733  .00002992  00000+0  10325-2 0  9992
2 87051  65.7286 326.5651 0717399 155.2693 208.4619 13.45746512584502
UNKNOWN                 
1 87054U          25314.88887011  .00002670  00000+0  15178-2 0  9998
2 87054 100.0919 190.4084 0013691  67.0431 293.2179 14.10866736611837
UNKNOWN                 
1 87071U          25316.13128952  .00009412  00000+0  33391-2 0  9997
2 87071  61.2237   2.7744 0482907 222.1437 134.1507 13.85192930598241
UNKNOWN                 
1 87129U          25315.21241421  .00000265  00000+0  22443-2 0  9999
2 87129 102.2636  45.8017 0033596 147.4225 212.8920 12.42799446542750
UNKNOWN                 
1 87159U          25310.07296941  .00001307  00000+0  15248-2 0  9991
2 87159  90.3486  68.0777 0103684   6.5928 353.6568 13.65936087551688
UNKNOWN                 
1 87163U          25315.98576810  .00002754  00000+0  85749-3 0  9998
2 87163  65.6015 312.1374 0642164  78.4555 288.7841 13.63647104573321
